NORAD_CAT_ID,OBJECT_NAME,OBJECT_TYPE,EPOCH,MEAN_MOTION,ECCENTRICITY,INCLINATION,RA_OF_ASC_NODE,ARG_OF_PERICENTER,MEAN_ANOMALY,BSTAR,MEAN_MOTION_DOT,MEAN_MOTION_DDOT,TLE_LINE0,TLE_LINE1,TLE_LINE2,SEMIMAJOR_AXIS,PERIOD,APOGEE,PERIGEE,DECAYED
52482.0,STARLINK-3813,PAYLOAD,2023-03-15 12:39:19,15.08860076,0.0001839,53.2142,263.0469,84.7885,275.3317,0.00049146,7.546e-05,0.0,0 STARLINK-3813,1 52482U 22049AH  23074.52730597  .00007546  00000-0  49146-3 0  9991,2 52482  53.2142 263.0469 0001839  84.7885 275.3317 15.08860076 47977,6917.819,95.436,540.956,538.412,0.0
52482.0,STARLINK-3813,PAYLOAD,2023-03-15 22:11:37,15.08851742,0.0001878,53.2149,261.2623,85.2815,274.8391,0.00028542,4.259e-05,0.0,0 STARLINK-3813,1 52482U 22049AH  23074.92474462  .00004259  00000-0  28542-3 0  9996,2 52482  53.2149 261.2623 0001878  85.2815 274.8391 15.08851742 47873,6917.844,95.437,541.009,538.41,0.0
52482.0,STARLINK-3813,PAYLOAD,2023-03-16 12:30:06,15.08834591,0.0001073,53.2153,258.5865,97.4771,262.6343,-0.00019357,-3.367e-05,0.0,0 STARLINK-3813,1 52482U 22049AH  23075.52090871 -.00003367  00000-0 -19357-3 0  9996,2 52482  53.2153 258.5865 0001073  97.4771 262.6343 15.08834591 48122,6917.897,95.438,540.504,539.02,0.0
52482.0,STARLINK-3813,PAYLOAD,2023-03-17 12:20:54,15.08833346,9.49e-05,53.2148,254.126,93.1645,266.9456,0.00027981,4.167e-05,0.0,0 STARLINK-3813,1 52482U 22049AH  23076.51451699  .00004167  00000-0  27981-3 0  9994,2 52482  53.2148 254.1260 0000949  93.1645 266.9456 15.08833346 48119,6917.901,95.438,540.422,539.109,0.0
52482.0,STARLINK-3813,PAYLOAD,2023-03-17 20:17:49,15.08845271,0.0001137,53.2153,252.6409,93.2816,266.8306,0.00059784,9.241e-05,0.0,0 STARLINK-3813,1 52482U 22049AH  23076.84571550  .00009241  00000-0  59784-3 0  9993,2 52482  53.2153 252.6409 0001137  93.2816 266.8306 15.08845271 48320,6917.864,95.437,540.516,538.943,0.0
52482.0,STARLINK-3813,PAYLOAD,2023-03-17 21:53:12,15.08847637,0.0001158,53.215,252.3433,93.3818,266.7307,0.00063852,9.891e-05,0.0,0 STARLINK-3813,1 52482U 22049AH  23076.91195499  .00009891  00000-0  63852-3 0  9997,2 52482  53.2150 252.3433 0001158  93.3818 266.7307 15.08847637 48178,6917.857,95.437,540.523,538.921,0.0
52482.0,STARLINK-3813,PAYLOAD,2023-03-18 12:11:41,15.08840045,0.0001258,53.2141,249.6666,95.1174,264.9962,0.00021957,3.208e-05,0.0,0 STARLINK-3813,1 52482U 22049AH  23077.50811680  .00003208  00000-0  21957-3 0  9996,2 52482  53.2141 249.6666 0001258  95.1174 264.9962 15.08840045 48422,6917.88,95.438,540.616,538.875,0.0
52482.0,STARLINK-3813,PAYLOAD,2023-03-18 20:08:36,15.0885003,0.0001115,53.2147,248.1803,92.1779,267.9341,0.00033357,5.026e-05,0.0,0 STARLINK-3813,1 52482U 22049AH  23077.83931156  .00005026  00000-0  33357-3 0  9990,2 52482  53.2147 248.1803 0001115  92.1779 267.9341 15.08850030 48312,6917.85,95.437,540.486,538.943,0.0
52482.0,STARLINK-3813,PAYLOAD,2023-03-19 12:02:28,15.08842284,0.0001598,53.2171,245.2069,89.3486,270.7689,3.9956e-06,-2.24e-06,0.0,0 STARLINK-3813,1 52482U 22049AH  23078.50171413 -.00000224  00000-0  39956-5 0  9996,2 52482  53.2171 245.2069 0001598  89.3486 270.7689 15.08842284 48419,6917.873,95.437,540.844,538.633,0.0
52482.0,STARLINK-3813,PAYLOAD,2023-03-19 15:13:14,15.08842883,0.000167,53.2163,244.6121,83.1354,276.9828,2.4303e-05,9.9e-07,0.0,0 STARLINK-3813,1 52482U 22049AH  23078.63419374  .00000099  00000-0  24303-4 0  9999,2 52482  53.2163 244.6121 0001670  83.1354 276.9828 15.08842883 48596,6917.872,95.437,540.892,538.581,0.0
52482.0,STARLINK-3813,PAYLOAD,2023-03-19 19:59:25,15.08817154,0.0002234,53.2151,243.7189,74.0497,286.0741,-0.00034261,-5.734e-05,0.0,0 STARLINK-3813,1 52482U 22049AH  23078.83292836 -.00005734  00000-0 -34261-3 0  9999,2 52482  53.2151 243.7189 0002234  74.0497 286.0741 15.08817154 48624,6917.95,95.439,541.361,538.27,0.0
52482.0,STARLINK-3813,PAYLOAD,2023-03-20 03:56:19,15.0884142,0.0001212,53.2155,242.2318,86.9893,273.1238,5.4529e-05,5.8e-06,0.0,0 STARLINK-3813,1 52482U 22049AH  23079.16411335  .00000580  00000-0  54529-4 0  9995,2 52482  53.2155 242.2318 0001212  86.9893 273.1238 15.08841420 48679,6917.876,95.437,540.579,538.903,0.0
52482.0,STARLINK-3813,PAYLOAD,2023-03-20 11:53:15,15.08840589,0.0001268,53.2161,240.7461,89.9261,270.1877,3.4046e-05,2.54e-06,0.0,0 STARLINK-3813,1 52482U 22049AH  23079.49531438  .00000254  00000-0  34046-4 0  9998,2 52482  53.2161 240.7461 0001268  89.9261 270.1877 15.08840589 48560,6917.879,95.438,540.621,538.866,0.0
52482.0,STARLINK-3813,PAYLOAD,2023-03-20 18:14:47,15.08851464,0.0001193,53.2163,239.5559,90.3443,269.7686,0.00013412,1.848e-05,0.0,0 STARLINK-3813,1 52482U 22049AH  23079.76026820  .00001848  00000-0  13412-3 0  9995,2 52482  53.2163 239.5559 0001193  90.3443 269.7686 15.08851464 48602,6917.845,95.437,540.536,538.885,0.0
52482.0,STARLINK-3813,PAYLOAD,2023-03-21 10:08:39,15.08833207,0.000129,53.2169,236.5833,88.0944,272.0196,-9.8026e-06,-4.44e-06,0.0,0 STARLINK-3813,1 52482U 22049AH  23080.42267638 -.00000444  00000-0 -98026-5 0  9993,2 52482  53.2169 236.5833 0001290  88.0944 272.0196 15.08833207 48707,6917.901,95.438,540.659,538.874,0.0
52482.0,STARLINK-3813,PAYLOAD,2023-03-22 03:37:53,15.08844271,0.0001464,53.2159,233.3126,99.047,261.0688,0.00017495,2.498e-05,0.0,0 STARLINK-3813,1 52482U 22049AH  23081.15131311  .00002498  00000-0  17495-3 0  9990,2 52482  53.2159 233.3126 0001464  99.0470 261.0688 15.08844271 48971,6917.867,95.437,540.745,538.72,0.0
52482.0,STARLINK-3813,PAYLOAD,2023-03-22 16:20:58,15.08849281,0.0001565,53.2161,230.9321,98.7684,261.3485,0.00015861,2.238e-05,0.0,0 STARLINK-3813,1 52482U 22049AH  23081.68123051  .00002238  00000-0  15861-3 0  9997,2 52482  53.2161 230.9321 0001565  98.7684 261.3485 15.08849281 48894,6917.852,95.437,540.8,538.634,0.0
52482.0,STARLINK-3813,PAYLOAD,2023-03-23 03:28:40,15.08845713,0.0001161,53.2162,228.8504,86.4672,273.6453,0.00016584,2.353e-05,0.0,0 STARLINK-3813,1 52482U 22049AH  23082.14491241  .00002353  00000-0  16584-3 0  9999,2 52482  53.2162 228.8504 0001161  86.4672 273.6453 15.08845713 49121,6917.863,95.437,540.531,538.925,0.0
52482.0,STARLINK-3813,PAYLOAD,2023-03-23 14:36:22,15.08840195,0.000152,53.2166,226.7682,91.8004,268.3162,0.0001873,2.694e-05,0.0,0 STARLINK-3813,1 52482U 22049AH  23082.60859740  .00002694  00000-0  18730-3 0  9995,2 52482  53.2166 226.7682 0001520  91.8004 268.3162 15.08840195 49034,6917.88,95.438,540.796,538.693,0.0
52482.0,STARLINK-3813,PAYLOAD,2023-03-23 16:11:45,15.08845482,0.0001772,53.2171,226.4743,99.7254,260.3938,0.00017416,2.485e-05,0.0,0 STARLINK-3813,1 52482U 22049AH  23082.67483260  .00002485  00000-0  17416-3 0  9990,2 52482  53.2171 226.4743 0001772  99.7254 260.3938 15.08845482 49046,6917.864,95.437,540.954,538.503,0.0
52482.0,STARLINK-3813,PAYLOAD,2023-03-24 12:51:44,15.08874213,0.0001601,53.2174,222.6094,108.2868,251.8298,0.000574,8.867e-05,0.0,0 STARLINK-3813,1 52482U 22049AH  23083.53593328  .00008867  00000-0  57400-3 0  9990,2 52482  53.2174 222.6094 0001601 108.2868 251.8298 15.08874213 49334,6917.776,95.435,540.748,538.533,0.0
52482.0,STARLINK-3813,PAYLOAD,2023-03-24 16:02:30,15.08900783,0.0001266,53.2163,222.0121,81.6518,278.4617,0.0012503,0.000197,0.0,0 STARLINK-3813,1 52482U 22049AH  23083.66840743  .00019700  00000-0  12503-2 0  9992,2 52482  53.2163 222.0121 0001266  81.6518 278.4617 15.08900783 49354,6917.695,95.434,540.435,538.684,0.0
52482.0,STARLINK-3813,PAYLOAD,2023-03-25 01:34:49,15.08854909,0.000155,53.2171,220.2306,91.363,268.754,-3.1359e-06,-3.38e-06,0.0,0 STARLINK-3813,1 52482U 22049AH  23084.06585362 -.00000338  00000-0 -31359-5 0  9992,2 52482  53.2171 220.2306 0001550  91.3630 268.7540 15.08854909 49419,6917.835,95.437,540.772,538.628,0.0
52482.0,STARLINK-3813,PAYLOAD,2023-03-25 12:42:34,15.0877416,0.0001519,53.2178,218.1482,96.6688,263.4477,-0.0015848,-0.00025376,0.0,0 STARLINK-3813,1 52482U 22049AH  23084.52956633 -.00025376  00000-0 -15848-2 0  9997,2 52482  53.2178 218.1482 0001519  96.6688 263.4477 15.08774160 49481,6918.082,95.442,540.997,538.896,0.0
52482.0,STARLINK-3813,PAYLOAD,2023-03-25 15:53:20,15.0881021,0.0001331,53.2177,217.553,85.799,274.3154,-0.00041528,-6.886e-05,0.0,0 STARLINK-3813,1 52482U 22049AH  23084.66203883 -.00006886  00000-0 -41528-3 0  9994,2 52482  53.2177 217.5530 0001331  85.7990 274.3154 15.08810210 49507,6917.971,95.439,540.757,538.916,0.0
52482.0,STARLINK-3813,PAYLOAD,2023-03-26 12:33:22,15.08823524,0.0001185,53.2166,213.6868,94.3471,265.7656,0.001064,0.00016678,0.0,0 STARLINK-3813,1 52482U 22049AH  23085.52317824  .00016678  00000-0  10640-2 0  9999,2 52482  53.2166 213.6868 0001185  94.3471 265.7656 15.08823524 49630,6917.931,95.439,540.616,538.976,0.0
52482.0,STARLINK-3813,PAYLOAD,2023-03-26 14:08:45,15.08830182,0.0001111,53.2167,213.3907,90.3925,269.7194,0.0013646,0.0002149,0.0,0 STARLINK-3813,1 52482U 22049AH  23085.58941840  .00021490  00000-0  13646-2 0  9993,2 52482  53.2167 213.3907 0001111  90.3925 269.7194 15.08830182 49483,6917.91,95.438,540.544,539.007,0.0
52482.0,STARLINK-3813,PAYLOAD,2023-03-27 12:24:08,15.08870214,0.0001339,53.216,209.2273,84.7127,275.4018,0.00088357,0.00013814,0.0,0 STARLINK-3813,1 52482U 22049AH  23086.51676674  .00013814  00000-0  88357-3 0  9990,2 52482  53.2160 209.2273 0001339  84.7127 275.4018 15.08870214 49781,6917.788,95.436,540.579,538.727,0.0
52482.0,STARLINK-3813,PAYLOAD,2023-03-27 13:59:31,15.08873872,0.0001326,53.2162,208.93,83.774,276.3404,0.00096695,0.00015149,0.0,0 STARLINK-3813,1 52482U 22049AH  23086.58300512  .00015149  00000-0  96695-3 0  9999,2 52482  53.2162 208.9300 0001326  83.7740 276.3404 15.08873872 49632,6917.777,95.435,540.559,538.725,0.0
52482.0,STARLINK-3813,PAYLOAD,2023-03-27 15:34:54,15.08878729,0.0001334,53.2162,208.6327,83.2713,276.8431,0.0010893,0.00017109,0.0,0 STARLINK-3813,1 52482U 22049AH  23086.64924314  .00017109  00000-0  10893-2 0  9991,2 52482  53.2162 208.6327 0001334  83.2713 276.8431 15.08878729 49644,6917.762,95.435,540.55,538.704,0.0
